start=new Date('2022-12-31T00:00:00.000Z').valueOf();
sats=[{"OBJECT_ID":"2021-021BE","GP_ID":"221791309","SEMIMAJOR_AXIS":"6925.349","ECCENTRICITY":"0.00018680","MEAN_ELEMENT_THEORY":"SGP4","ELEMENT_SET_NO":"999","MEAN_ANOMALY":"317.9335","REV_AT_EPOCH":"10011","CLASSIFICATION_TYPE":"U","RCS_SIZE":"LARGE","EPOCH":"2022-12-30T16:44:59.360928","MEAN_MOTION":"15.06399867","TIME_SYSTEM":"UTC","SITE":"AFETR","TLE_LINE1":"1 47912U 21021BE  22364.69790927  .00003324  00000-0  24198-3 0  9994","COUNTRY_CODE":"US","INCLINATION":"53.0552","TLE_LINE2":"2 47912  53.0552 101.4677 0001868  42.1798 317.9335 15.06399867100113","MEAN_MOTION_DDOT":"0.0000000000000","PERIOD":"95.592","APOAPSIS":"548.508","REF_FRAME":"TEME","LAUNCH_DATE":"2021-03-14","NORAD_CAT_ID":"47912","EPHEMERIS_TYPE":"0","CENTER_NAME":"EARTH","OBJECT_TYPE":"PAYLOAD","MEAN_MOTION_DOT":"0.00003324","OBJECT_NAME":"STARLINK-2372","BSTAR":"0.00024198000000","RA_OF_ASC_NODE":"101.4677","DECAY_DATE":null,"FILE":"3726873","ARG_OF_PERICENTER":"42.1798","PERIAPSIS":"545.920"},{"GP_ID":"221791304","OBJECT_ID":"2021-021BF","MEAN_ELEMENT_THEORY":"SGP4","ECCENTRICITY":"0.00017370","SEMIMAJOR_AXIS":"6925.319","ELEMENT_SET_NO":"999","REV_AT_EPOCH":"9997","MEAN_ANOMALY":"307.9825","EPOCH":"2022-12-30T16:55:43.061664","RCS_SIZE":"LARGE","CLASSIFICATION_TYPE":"U","TIME_SYSTEM":"UTC","MEAN_MOTION":"15.06409569","COUNTRY_CODE":"US","TLE_LINE1":"1 47913U 21021BF  22364.70535951  .00004509  00000-0  32136-3 0  9998","SITE":"AFETR","TLE_LINE2":"2 47913  53.0557 111.9156 0001737  52.1321 307.9825 15.06409569 99970","INCLINATION":"53.0557","PERIOD":"95.592","MEAN_MOTION_DDOT":"0.0000000000000","REF_FRAME":"TEME","APOAPSIS":"548.387","LAUNCH_DATE":"2021-03-14","NORAD_CAT_ID":"47913","EPHEMERIS_TYPE":"0","MEAN_MOTION_DOT":"0.00004509","OBJECT_TYPE":"PAYLOAD","CENTER_NAME":"EARTH","RA_OF_ASC_NODE":"111.9156","BSTAR":"0.00032136000000","OBJECT_NAME":"STARLINK-2374","PERIAPSIS":"545.981","ARG_OF_PERICENTER":"52.1321","FILE":"3726873","DECAY_DATE":null},{"OBJECT_NAME":"STARLINK-2375","BSTAR":"0.00030077000000","RA_OF_ASC_NODE":"111.3571","DECAY_DATE":null,"FILE":"3726893","ARG_OF_PERICENTER":"71.4581","PERIAPSIS":"546.135","EPHEMERIS_TYPE":"0","CENTER_NAME":"EARTH","OBJECT_TYPE":"PAYLOAD","MEAN_MOTION_DOT":"0.00004201","LAUNCH_DATE":"2021-03-14","NORAD_CAT_ID":"47914","MEAN_MOTION_DDOT":"0.0000000000000","PERIOD":"95.592","APOAPSIS":"548.304","REF_FRAME":"TEME","TLE_LINE1":"1 47914U 21021BG  22364.72374422  .00004201  00000-0  30077-3 0  9996","SITE":"AFETR","COUNTRY_CODE":"US","INCLINATION":"53.0539","TLE_LINE2":"2 47914  53.0539 111.3571 0001566  71.4581 288.6578 15.06398114 99982","CLASSIFICATION_TYPE":"U","RCS_SIZE":"LARGE","EPOCH":"2022-12-30T17:22:11.500608","MEAN_MOTION":"15.06398114","TIME_SYSTEM":"UTC","ELEMENT_SET_NO":"999","MEAN_ANOMALY":"288.6578","REV_AT_EPOCH":"9998","OBJECT_ID":"2021-021BG","GP_ID":"221791829","SEMIMAJOR_AXIS":"6925.354","ECCENTRICITY":"0.00015660","MEAN_ELEMENT_THEORY":"SGP4"},{"REF_FRAME":"TEME","APOAPSIS":"548.214","PERIOD":"95.592","MEAN_MOTION_DDOT":"0.0000000000000","NORAD_CAT_ID":"47915","LAUNCH_DATE":"2021-03-14","OBJECT_TYPE":"PAYLOAD","MEAN_MOTION_DOT":"0.00005300","CENTER_NAME":"EARTH","EPHEMERIS_TYPE":"0","FILE":"3726810","PERIAPSIS":"546.230","ARG_OF_PERICENTER":"71.8278","DECAY_DATE":null,"RA_OF_ASC_NODE":"107.2510","OBJECT_NAME":"STARLINK-2376","BSTAR":"0.00037445000000","MEAN_ELEMENT_THEORY":"SGP4","SEMIMAJOR_AXIS":"6925.357","ECCENTRICITY":"0.00014320","OBJECT_ID":"2021-021BH","GP_ID":"221785976","MEAN_ANOMALY":"288.2867","REV_AT_EPOCH":"10051","ELEMENT_SET_NO":"999","TIME_SYSTEM":"UTC","MEAN_MOTION":"15.06397183","RCS_SIZE":"LARGE","EPOCH":"2022-12-30T12:33:35.478720","CLASSIFICATION_TYPE":"U","INCLINATION":"53.0543","TLE_LINE2":"2 47915  53.0543 107.2510 0001432  71.8278 288.2867 15.06397183100518","COUNTRY_CODE":"US","SITE":"AFETR","TLE_LINE1":"1 47915U 21021BH  22364.52332730  .00005300  00000-0  37445-3 0  9998"},{"EPHEMERIS_TYPE":"0","OBJECT_TYPE":"PAYLOAD","MEAN_MOTION_DOT":"0.00002447","CENTER_NAME":"EARTH","RA_OF_ASC_NODE":"92.0799","OBJECT_NAME":"STARLINK-2378","BSTAR":"0.00018308000000","FILE":"3726810","PERIAPSIS":"546.006","ARG_OF_PERICENTER":"49.8118","DECAY_DATE":null,"PERIOD":"95.592","MEAN_MOTION_DDOT":"0.0000000000000","REF_FRAME":"TEME","APOAPSIS":"548.399","LAUNCH_DATE":"2021-03-14","NORAD_CAT_ID":"47916","RCS_SIZE":"LARGE","EPOCH":"2022-12-30T13:31:17.411808","CLASSIFICATION_TYPE":"U","TIME_SYSTEM":"UTC","MEAN_MOTION":"15.06403584","COUNTRY_CODE":"US","TLE_LINE1":"1 47916U 21021BJ  22364.56339597  .00002447  00000-0  18308-3 0  9997","SITE":"AFETR","INCLINATION":"53.0545","TLE_LINE2":"2 47916  53.0545  92.0799 0001728  49.8118 310.3022 15.06403584100701","OBJECT_ID":"2021-021BJ","GP_ID":"221786226","MEAN_ELEMENT_THEORY":"SGP4","SEMIMAJOR_AXIS":"6925.338","ECCENTRICITY":"0.00017280","ELEMENT_SET_NO":"999","MEAN_ANOMALY":"310.3022","REV_AT_EPOCH":"10070"},{"APOAPSIS":"548.252","REF_FRAME":"TEME","MEAN_MOTION_DDOT":"0.0000000000000","PERIOD":"95.592","NORAD_CAT_ID":"47917","LAUNCH_DATE":"2021-03-14","CENTER_NAME":"EARTH","OBJECT_TYPE":"PAYLOAD","MEAN_MOTION_DOT":"0.00007149","EPHEMERIS_TYPE":"0","DECAY_DATE":null,"FILE":"3726886","PERIAPSIS":"546.128","ARG_OF_PERICENTER":"48.6250","OBJECT_NAME":"STARLINK-2397","BSTAR":"0.00049825000000","RA_OF_ASC_NODE":"101.4424","SEMIMAJOR_AXIS":"6925.325","ECCENTRICITY":"0.00015330","MEAN_ELEMENT_THEORY":"SGP4","OBJECT_ID":"2021-021BK","GP_ID":"221791519","REV_AT_EPOCH":"10012","MEAN_ANOMALY":"311.4871","ELEMENT_SET_NO":"999","MEAN_MOTION":"15.06407661","TIME_SYSTEM":"UTC","CLASSIFICATION_TYPE":"U","RCS_SIZE":"LARGE","EPOCH":"2022-12-30T16:51:40.515264","INCLINATION":"53.0545","TLE_LINE2":"2 47917  53.0545 101.4424 0001533  48.6250 311.4871 15.06407661100120","TLE_LINE1":"1 47917U 21021BK  22364.70255226  .00007149  00000-0  49825-3 0  9992","SITE":"AFETR","COUNTRY_CODE":"US"},{"ELEMENT_SET_NO":"999","REV_AT_EPOCH":"10012","MEAN_ANOMALY":"310.5492","GP_ID":"221791527","OBJECT_ID":"2021-021BL","MEAN_ELEMENT_THEORY":"SGP4","ECCENTRICITY":"0.00017670","SEMIMAJOR_AXIS":"6925.343","COUNTRY_CODE":"US","TLE_LINE1":"1 47918U 21021BL  22364.70991640  .00003027  00000-0  22204-3 0  9993","SITE":"AFETR","TLE_LINE2":"2 47918  53.0544 101.4238 0001767  49.5651 310.5492 15.06401954100125","INCLINATION":"53.0544","EPOCH":"2022-12-30T17:02:16.776960","RCS_SIZE":"LARGE","CLASSIFICATION_TYPE":"U","TIME_SYSTEM":"UTC","MEAN_MOTION":"15.06401954","LAUNCH_DATE":"2021-03-14","NORAD_CAT_ID":"47918","PERIOD":"95.592","MEAN_MOTION_DDOT":"0.0000000000000","REF_FRAME":"TEME","APOAPSIS":"548.431","RA_OF_ASC_NODE":"101.4238","BSTAR":"0.00022204000000","OBJECT_NAME":"STARLINK-2398","PERIAPSIS":"545.984","ARG_OF_PERICENTER":"49.5651","FILE":"3726886","DECAY_DATE":null,"EPHEMERIS_TYPE":"0","MEAN_MOTION_DOT":"0.00003027","OBJECT_TYPE":"PAYLOAD","CENTER_NAME":"EARTH"},{"CENTER_NAME":"EARTH","OBJECT_TYPE":"PAYLOAD","MEAN_MOTION_DOT":"0.00004204","EPHEMERIS_TYPE":"0","DECAY_DATE":null,"FILE":"3726810","ARG_OF_PERICENTER":"75.0026","PERIAPSIS":"546.157","OBJECT_NAME":"STARLINK-2405","BSTAR":"0.00030091000000","RA_OF_ASC_NODE":"112.0879","APOAPSIS":"548.242","REF_FRAME":"TEME","MEAN_MOTION_DDOT":"0.0000000000000","PERIOD":"95.592","NORAD_CAT_ID":"47919","LAUNCH_DATE":"2021-03-14","MEAN_MOTION":"15.06404525","TIME_SYSTEM":"UTC","CLASSIFICATION_TYPE":"U","RCS_SIZE":"LARGE","EPOCH":"2022-12-30T13:28:38.323488","INCLINATION":"53.0552","TLE_LINE2":"2 47919  53.0552 112.0879 0001505  75.0026 285.1129 15.06404525100428","SITE":"AFETR","TLE_LINE1":"1 47919U 21021BM  22364.56155467  .00004204  00000-0  30091-3 0  9998","COUNTRY_CODE":"US","SEMIMAJOR_AXIS":"6925.335","ECCENTRICITY":"0.00015050","MEAN_ELEMENT_THEORY":"SGP4","OBJECT_ID":"2021-021BM","GP_ID":"221785476","MEAN_ANOMALY":"285.1129","REV_AT_EPOCH":"10042","ELEMENT_SET_NO":"999"},{"LAUNCH_DATE":"2021-03-24","NORAD_CAT_ID":"47977","PERIOD":"95.592","MEAN_MOTION_DDOT":"0.0000000000000","REF_FRAME":"TEME","APOAPSIS":"548.095","RA_OF_ASC_NODE":"156.4571","BSTAR":"0.00007398300000","OBJECT_NAME":"STARLINK-2087","ARG_OF_PERICENTER":"81.1775","PERIAPSIS":"546.300","FILE":"3727011","DECAY_DATE":null,"EPHEMERIS_TYPE":"0","MEAN_MOTION_DOT":"0.00000821","OBJECT_TYPE":"PAYLOAD","CENTER_NAME":"EARTH","ELEMENT_SET_NO":"999","REV_AT_EPOCH":"9859","MEAN_ANOMALY":"278.9360","GP_ID":"221794510","OBJECT_ID":"2021-024A","MEAN_ELEMENT_THEORY":"SGP4","ECCENTRICITY":"0.00012960","SEMIMAJOR_AXIS":"6925.333","COUNTRY_CODE":"US","SITE":"AFETR","TLE_LINE1":"1 47977U 21024A   22364.70300515  .00000821  00000-0  73983-4 0  9996","TLE_LINE2":"2 47977  53.0530 156.4571 0001296  81.1775 278.9360 15.06405206 98593","INCLINATION":"53.0530","EPOCH":"2022-12-30T16:52:19.644960","RCS_SIZE":"LARGE","CLASSIFICATION_TYPE":"U","TIME_SYSTEM":"UTC","MEAN_MOTION":"15.06405206"},{"TIME_SYSTEM":"UTC","MEAN_MOTION":"15.06401292","EPOCH":"2022-12-30T17:22:51.629088","RCS_SIZE":"LARGE","CLASSIFICATION_TYPE":"U","TLE_LINE2":"2 47978  53.0545 166.3522 0001491  90.1018 270.0142 15.06401292 98449","INCLINATION":"53.0545","COUNTRY_CODE":"US","TLE_LINE1":"1 47978U 21024B   22364.72420867  .00000468  00000-0  50294-4 0  9999","SITE":"AFETR","MEAN_ELEMENT_THEORY":"SGP4","ECCENTRICITY":"0.00014910","SEMIMAJOR_AXIS":"6925.345","GP_ID":"221794530","OBJECT_ID":"2021-024B","REV_AT_EPOCH":"9844","MEAN_ANOMALY":"270.0142","ELEMENT_SET_NO":"999","MEAN_MOTION_DOT":"0.00000468","OBJECT_TYPE":"PAYLOAD","CENTER_NAME":"EARTH","EPHEMERIS_TYPE":"0","ARG_OF_PERICENTER":"90.1018","PERIAPSIS":"546.177","FILE":"3727012","DECAY_DATE":null,"RA_OF_ASC_NODE":"166.3522","BSTAR":"0.00005029400000","OBJECT_NAME":"STARLINK-1647","REF_FRAME":"TEME","APOAPSIS":"548.242","PERIOD":"95.592","MEAN_MOTION_DDOT":"0.0000000000000","NORAD_CAT_ID":"47978","LAUNCH_DATE":"2021-03-24"}];
